OBJECT_NAME,OBJECT_ID,EPOCH,MEAN_MOTION,ECCENTRICITY,INCLINATION,RA_OF_ASC_NODE,ARG_OF_PERICENTER,MEAN_ANOMALY,EPHEMERIS_TYPE,CLASSIFICATION_TYPE,NORAD_CAT_ID,ELEMENT_SET_NO,REV_AT_EPOCH,BSTAR,MEAN_MOTION_DOT,MEAN_MOTION_DDOT
SWARM B,2013-067A,2026-07-22T06:53:35.855520,15.28749922,.00022396,87.7465,331.6554,90.5417,269.6089,0,U,39451,999,68860,.11744901E-3,.3315E-4,0
SWARM A,2013-067B,2026-07-22T05:57:52.903872,15.50699017,.00033256,87.3303,43.2015,89.8396,270.3246,0,U,39452,999,71168,.17190398E-3,.9911E-4,0
SWARM C,2013-067C,2026-07-22T04:24:03.259584,15.51552806,.00032875,87.3304,41.8063,90.7347,269.4291,0,U,39453,999,71163,.17710604E-3,.10523E-3,0
BRITE-CA1 (TORONTO),2014-033L,2026-07-21T08:23:05.265600,14.72731418,.00789328,97.9778,330.6555,166.5957,193.7373,0,U,40020,999,64724,.12831632E-3,.807E-5,0
OCO 2,2014-035A,2026-07-22T05:53:14.549856,14.57136034,.00014028,98.2021,144.0063,80.5639,279.5718,0,U,40059,999,64115,.71121111E-4,.275E-5,0
BRITE-PL2 (HEWELIUSZ),2014-049B,2026-07-21T18:48:26.610912,14.94700171,.00136983,97.9121,315.0574,0.8045,359.3195,0,U,40119,999,64661,.13870223E-3,.1447E-4,0
MMS 1,2015-011A,2026-07-22T08:00:01.999872,0.28359007,.83026515,72.5671,348.3803,168.1821,283.7318,0,U,40482,999,138,0,-.1456E-4,0
MMS 2,2015-011B,2026-07-22T08:00:01.999872,0.28358242,.83054946,72.5710,348.3792,168.1845,283.7201,0,U,40483,999,138,0,-.1456E-4,0
MMS 3,2015-011C,2026-07-22T08:00:01.999872,0.28358951,.83038375,72.5708,348.3912,168.1926,283.6921,0,U,40484,999,135,0,-.1455E-4,0
MMS 4,2015-011D,2026-07-22T08:00:01.999872,0.28358994,.83037931,72.5663,348.3747,168.2025,283.6884,0,U,40485,999,138,0,-.1455E-4,0
ASTROSAT,2015-052A,2026-07-22T04:58:53.098464,14.82560168,.00078689,5.9965,263.2782,179.3915,180.6223,0,U,40930,999,58503,.87799578E-4,.1394E-4,0
DAMPE,2015-078A,2026-07-22T06:28:49.046304,15.30864606,.00107685,97.4574,208.9127,318.9211,41.1218,0,U,41173,999,58991,.30432773E-4,.831E-5,0
PISAT,2016-059B,2026-07-22T05:20:54.935520,14.69038768,.00305832,97.8195,202.1733,93.4388,267.0317,0,U,41784,999,52488,.13879679E-3,.773E-5,0
HXMT (HUIYAN),2017-034A,2026-07-22T06:10:26.387904,15.18733368,.0031349,43.0152,347.7230,5.3232,354.7945,0,U,42758,999,50299,.23917051E-3,.4878E-4,0
FLYING LAPTOP,2017-042G,2026-07-22T07:28:38.311392,15.01342161,.00192558,97.4845,357.5308,9.8571,350.3028,0,U,42831,999,49172,.18034143E-3,.2273E-4,0
ZHANGHENG 1-01 (CSES-1),2018-015C,2026-07-22T06:34:17.038848,15.20673529,.00168946,97.6902,9.6338,141.4452,218.7993,0,U,43194,999,46997,.38076145E-3,.8324E-4,0
SALSAT,2020-068K,2026-07-22T00:05:06.375264,15.30238203,.00099248,97.8867,208.2016,169.3819,190.7631,0,U,46495,999,32068,.25647661E-3,.7429E-4,0
IXPE,2021-121A,2026-07-22T08:00:01.999872,15.10530058,.00074279,0.2319,51.4245,253.2092,178.1655,0,U,49954,999,590,.5035754E-3,.9487E-4,0
SMILE,2026-109A,2026-07-13T23:01:31.580256,0.47500629,.83137076,70.0512,206.6048,286.9544,0.1879,0,U,69123,999,6,0,.936E-5,0
