SWARM B                 
1 39451U 13067A   26203.28722055  .00003315  00000+0  11745-3 0  9995
2 39451  87.7465 331.6554 0002239  90.5417 269.6089 15.28749922688607
SWARM A                 
1 39452U 13067B   26203.24852898  .00009911  00000+0  17190-3 0  9999
2 39452  87.3303  43.2015 0003325  89.8396 270.3246 15.50699017711680
SWARM C                 
1 39453U 13067C   26203.18337106  .00010523  00000+0  17711-3 0  9993
2 39453  87.3304  41.8063 0003287  90.7347 269.4291 15.51552806711632
BRITE-CA1 (TORONTO)     
1 40020U 14033L   26202.34936650  .00000807  00000+0  12832-3 0  9998
2 40020  97.9778 330.6555 0078932 166.5957 193.7373 14.72731418647244
OCO 2                   
1 40059U 14035A   26203.24530729  .00000275  00000+0  71121-4 0  9995
2 40059  98.2021 144.0063 0001402  80.5639 279.5718 14.57136034641158
BRITE-PL2 (HEWELIUSZ)   
1 40119U 14049B   26202.78364133  .00001447  00000+0  13870-3 0  9997
2 40119  97.9121 315.0574 0013698   0.8045 359.3195 14.94700171646617
MMS 1                   
1 40482U 15011A   26203.33335648 -.00001456  00000+0  00000+0 0  9999
2 40482  72.5671 348.3803 8302651 168.1821 283.7318  0.28359007  1387
MMS 2                   
1 40483U 15011B   26203.33335648 -.00001456  00000+0  00000+0 0  9990
2 40483  72.5710 348.3792 8305494 168.1845 283.7201  0.28358242  1384
MMS 3                   
1 40484U 15011C   26203.33335648 -.00001455  00000+0  00000+0 0  9990
2 40484  72.5708 348.3912 8303837 168.1926 283.6921  0.28358951  1357
MMS 4                   
1 40485U 15011D   26203.33335648 -.00001455  00000+0  00000+0 0  9991
2 40485  72.5663 348.3747 8303793 168.2025 283.6884  0.28358994  1384
ASTROSAT                
1 40930U 15052A   26203.20755901  .00001394  00000+0  87800-4 0  9994
2 40930   5.9965 263.2782 0007868 179.3915 180.6223 14.82560168585030
DAMPE                   
1 41173U 15078A   26203.27001211  .00000831  00000+0  30433-4 0  9992
2 41173  97.4574 208.9127 0010768 318.9211  41.1218 15.30864606589918
PISAT                   
1 41784U 16059B   26203.22285805  .00000773  00000+0  13880-3 0  9999
2 41784  97.8195 202.1733 0030583  93.4388 267.0317 14.69038768524882
HXMT (HUIYAN)           
1 42758U 17034A   26203.25724986  .00004878  00000+0  23917-3 0  9998
2 42758  43.0152 347.7230 0031349   5.3232 354.7945 15.18733368502991
FLYING LAPTOP           
1 42831U 17042G   26203.31155453  .00002273  00000+0  18034-3 0  9994
2 42831  97.4845 357.5308 0019255   9.8571 350.3028 15.01342161491728
ZHANGHENG 1-01 (CSES-1) 
1 43194U 18015C   26203.27380832  .00008324  00000+0  38076-3 0  9995
2 43194  97.6902   9.6338 0016894 141.4452 218.7993 15.20673529469978
SALSAT                  
1 46495U 20068K   26203.00354601  .00007429  00000+0  25648-3 0  9995
2 46495  97.8867 208.2016 0009924 169.3819 190.7631 15.30238203320688
IXPE                    
1 49954U 21121A   26203.33335648  .00009487  00000+0  50358-3 0  9997
2 49954   0.2319  51.4245 0007427 253.2092 178.1655 15.10530058  5907
SMILE                   
1 69123U 26109A   26194.95939329  .00000936  00000+0  00000+0 0  9996
2 69123  70.0512 206.6048 8313707 286.9544   0.1879  0.47500629    65
